STARLINK-2620           
1 48453U 21040AB  26068.61827280  .00013618  00000+0  47094-3 0  9992
2 48453  53.1616 178.4535 0002071  50.3086 309.8098 15.30208340266673
TEVEL2-1                
1 63217U 25052H   26068.64782323  .00020683  00000+0  70600-3 0  9994
2 63217  97.3991 324.7682 0004767 104.8919 255.2849 15.30341923 54855
